NORAD_CAT_ID,OBJECT_NAME,OBJECT_TYPE,EPOCH,MEAN_MOTION,ECCENTRICITY,INCLINATION,RA_OF_ASC_NODE,ARG_OF_PERICENTER,MEAN_ANOMALY,BSTAR,MEAN_MOTION_DOT,MEAN_MOTION_DDOT,TLE_LINE0,TLE_LINE1,TLE_LINE2,SEMIMAJOR_AXIS,PERIOD,APOGEE,PERIGEE,DECAYED
55317.0,STARLINK-5265,PAYLOAD,2024-03-21 13:30:58,14.98325834,0.0002154,70.0017,15.1446,274.843,85.2483,0.00020017,2.296e-05,0.0,0 STARLINK-5265,1 55317U 23010BA  24081.56317328  .00002296  00000-0  20017-3 0  9999,2 55317  70.0017  15.1446 0002154 274.8430  85.2483 14.98325834 67076,6950.206,96.107,573.568,570.574,0.0
55317.0,STARLINK-5265,PAYLOAD,2024-03-21 21:31:38,14.98333606,0.0002276,70.0016,14.303,261.7215,98.3686,0.00012114,1.353e-05,0.0,0 STARLINK-5265,1 55317U 23010BA  24081.89696854  .00001353  00000-0  12114-3 0  9991,2 55317  70.0016  14.3030 0002276 261.7215  98.3686 14.98333606 67128,6950.182,96.107,573.629,570.465,0.0
55317.0,STARLINK-5265,PAYLOAD,2024-03-22 05:32:17,14.98333978,0.0001908,70.0025,13.4622,257.9504,102.1442,0.00037131,4.341e-05,0.0,0 STARLINK-5265,1 55317U 23010BA  24082.23076093  .00004341  00000-0  37131-3 0  9993,2 55317  70.0025  13.4622 0001908 257.9504 102.1442 14.98333978 65993,6950.181,96.107,573.372,570.719,0.0
55317.0,STARLINK-5265,PAYLOAD,2024-03-22 21:33:39,14.98332414,0.0002312,70.0015,11.7796,269.5438,90.5456,-6.5369e-05,-8.73e-06,0.0,0 STARLINK-5265,1 55317U 23010BA  24082.89837148 -.00000873  00000-0 -65369-4 0  9994,2 55317  70.0015  11.7796 0002312 269.5438  90.5456 14.98332414 66091,6950.185,96.107,573.657,570.444,0.0
55317.0,STARLINK-5265,PAYLOAD,2024-03-23 21:35:39,14.98334987,0.0002125,70.002,9.2557,262.871,97.2207,-4.0369e-05,-5.75e-06,0.0,0 STARLINK-5265,1 55317U 23010BA  24083.89976525 -.00000575  00000-0 -40369-4 0  9990,2 55317  70.0020   9.2557 0002125 262.8710  97.2207 14.98334987 66247,6950.177,96.107,573.519,570.566,0.0
55317.0,STARLINK-5265,PAYLOAD,2024-03-24 12:00:52,14.98340207,0.000125,70.0046,7.7397,268.8126,91.289,-0.00018018,-2.242e-05,0.0,0 STARLINK-5265,1 55317U 23010BA  24084.50060486 -.00002242  00000-0 -18018-3 0  9997,2 55317  70.0046   7.7397 0001250 268.8126  91.2890 14.98340207 67510,6950.161,96.106,572.895,571.158,0.0
55317.0,STARLINK-5265,PAYLOAD,2024-03-24 21:37:41,14.98326081,0.0002477,70.0005,6.7305,254.3104,105.7782,-7.2418e-05,-9.57e-06,0.0,0 STARLINK-5265,1 55317U 23010BA  24084.90116983 -.00000957  00000-0 -72418-4 0  9991,2 55317  70.0005   6.7305 0002477 254.3104 105.7782 14.98326081 66391,6950.205,96.107,573.792,570.348,0.0
55317.0,STARLINK-5265,PAYLOAD,2024-03-24 23:13:49,14.98325654,0.0002457,70.0007,6.5625,253.6857,106.4032,-7.9098e-05,-1.036e-05,0.0,0 STARLINK-5265,1 55317U 23010BA  24084.96793053 -.00001036  00000-0 -79098-4 0  9996,2 55317  70.0007   6.5625 0002457 253.6857 106.4032 14.98325654 67584,6950.206,96.107,573.779,570.364,0.0
55317.0,STARLINK-5265,PAYLOAD,2024-03-25 21:39:43,14.98314898,0.0002595,70.0006,4.2043,267.4112,92.675,-0.000194,-2.406e-05,0.0,0 STARLINK-5265,1 55317U 23010BA  24085.90258498 -.00002406  00000-0 -19400-3 0  9992,2 55317  70.0006   4.2043 0002595 267.4112  92.6750 14.98314898 66548,6950.24,96.108,573.908,570.301,0.0
55317.0,STARLINK-5265,PAYLOAD,2024-03-26 12:04:55,14.98310952,0.000284,69.9999,2.6883,269.9072,90.1761,0.00019217,2.2e-05,0.0,0 STARLINK-5265,1 55317U 23010BA  24086.50342174  .00002200  00000-0  19217-3 0  9990,2 55317  69.9999   2.6883 0002840 269.9072  90.1761 14.98310952 66637,6950.252,96.108,574.091,570.143,0.0
55317.0,STARLINK-5265,PAYLOAD,2024-03-26 21:41:46,14.98285492,0.0002811,70.0,1.6809,272.7536,87.3301,-0.00015595,-1.951e-05,0.0,0 STARLINK-5265,1 55317U 23010BA  24086.90401038 -.00001951  00000-0 -15595-3 0  9998,2 55317  70.0000   1.6809 0002811 272.7536  87.3301 14.98285492 66699,6950.331,96.11,574.149,570.242,0.0
55317.0,STARLINK-5265,PAYLOAD,2024-03-27 04:06:16,14.9832423,0.0002604,70.0009,1.0075,263.5148,96.5714,9.6381e-05,1.057e-05,0.0,0 STARLINK-5265,1 55317U 23010BA  24087.17102385  .00001057  00000-0  96381-4 0  9999,2 55317  70.0009   1.0075 0002604 263.5148  96.5714 14.98324230 66733,6950.211,96.107,573.886,570.266,0.0
55317.0,STARLINK-5265,PAYLOAD,2024-03-27 12:06:56,14.9833651,0.0002903,70.0001,0.1657,260.9256,99.1574,0.00011241,1.249e-05,0.0,0 STARLINK-5265,1 55317U 23010BA  24087.50481511  .00001249  00000-0  11241-3 0  9991,2 55317  70.0001   0.1657 0002903 260.9256  99.1574 14.98336510 66786,6950.173,96.107,574.055,570.02,0.0
55317.0,STARLINK-5265,PAYLOAD,2024-03-27 21:43:43,14.98334525,0.0002848,70.0002,359.1556,267.6127,92.4706,0.00034392,4.013e-05,0.0,0 STARLINK-5265,1 55317U 23010BA  24087.90537012  .00004013  00000-0  34392-3 0  9997,2 55317  70.0002 359.1556 0002848 267.6127  92.4706 14.98334525 68027,6950.179,96.107,574.023,570.064,0.0
55317.0,STARLINK-5265,PAYLOAD,2024-03-28 04:08:15,14.98348126,0.0002784,70.0001,358.4821,265.6284,94.4557,0.00039418,4.616e-05,0.0,0 STARLINK-5265,1 55317U 23010BA  24088.17239839  .00004616  00000-0  39418-3 0  9996,2 55317  70.0001 358.4821 0002784 265.6284  94.4557 14.98348126 66884,6950.137,96.106,573.937,570.067,0.0
55317.0,STARLINK-5265,PAYLOAD,2024-03-28 20:09:37,14.98319872,0.0003449,69.998,356.8,270.4364,89.64,0.00024059,2.778e-05,0.0,0 STARLINK-5265,1 55317U 23010BA  24088.84001636  .00002778  00000-0  24059-3 0  9994,2 55317  69.9980 356.8000 0003449 270.4364  89.6400 14.98319872 66980,6950.224,96.108,574.486,569.692,0.0
55317.0,STARLINK-5265,PAYLOAD,2024-03-28 21:45:45,14.98319802,0.0003605,69.9983,356.6317,268.4371,91.6375,0.00022391,2.579e-05,0.0,0 STARLINK-5265,1 55317U 23010BA  24088.90677679  .00002579  00000-0  22391-3 0  9993,2 55317  69.9983 356.6317 0003605 268.4371  91.6375 14.98319802 68171,6950.224,96.108,574.595,569.584,0.0
55317.0,STARLINK-5265,PAYLOAD,2024-03-29 10:34:49,14.9833856,0.0002333,70.0022,355.2839,270.3177,89.7715,-0.00010429,-1.337e-05,0.0,0 STARLINK-5265,1 55317U 23010BA  24089.44085512 -.00001337  00000-0 -10429-3 0  9994,2 55317  70.0022 355.2839 0002333 270.3177  89.7715 14.98338560 67071,6950.166,96.106,573.653,570.41,0.0
55317.0,STARLINK-5265,PAYLOAD,2024-03-29 23:23:53,14.98342766,0.0002658,70.0006,353.9378,270.0451,90.0404,-0.00016824,-2.1e-05,0.0,0 STARLINK-5265,1 55317U 23010BA  24089.97492940 -.00002100  00000-0 -16824-3 0  9993,2 55317  70.0006 353.9378 0002658 270.0451  90.0404 14.98342766 68331,6950.153,96.106,573.866,570.171,0.0
55317.0,STARLINK-5265,PAYLOAD,2024-03-30 10:36:50,14.98346557,0.000282,70.0008,352.7594,269.1321,90.9515,-0.00031846,-3.892e-05,0.0,0 STARLINK-5265,1 55317U 23010BA  24090.44224706 -.00003892  00000-0 -31846-3 0  9990,2 55317  70.0008 352.7594 0002820 269.1321  90.9515 14.98346557 67227,6950.142,96.106,573.967,570.047,0.0
55317.0,STARLINK-5265,PAYLOAD,2024-03-30 23:25:55,14.9832772,0.0002804,70.0005,351.4125,270.5472,89.5366,-3.3876e-05,-4.97e-06,0.0,0 STARLINK-5265,1 55317U 23010BA  24090.97633151 -.00000497  00000-0 -33876-4 0  9990,2 55317  70.0005 351.4125 0002804 270.5472  89.5366 14.98327720 68483,6950.2,96.107,574.014,570.116,0.0
55317.0,STARLINK-5265,PAYLOAD,2024-03-31 04:14:19,14.98329598,0.0002802,70.0006,350.9069,272.5171,87.5667,-2.7955e-05,-4.26e-06,0.0,0 STARLINK-5265,1 55317U 23010BA  24091.17661038 -.00000426  00000-0 -27955-4 0  9991,2 55317  70.0006 350.9069 0002802 272.5171  87.5667 14.98329598 67331,6950.194,96.107,574.007,570.112,0.0
55317.0,STARLINK-5265,PAYLOAD,2024-03-31 10:38:51,14.98335304,0.0002783,70.0008,350.2342,266.7806,93.3035,-6.1743e-05,-8.3e-06,0.0,0 STARLINK-5265,1 55317U 23010BA  24091.44364709 -.00000830  00000-0 -61743-4 0  9998,2 55317  70.0008 350.2342 0002783 266.7806  93.3035 14.98335304 68559,6950.176,96.107,573.976,570.107,0.0
55317.0,STARLINK-5265,PAYLOAD,2024-03-31 20:15:39,14.98334925,0.0002829,70.0005,349.2242,270.1926,89.8909,8.6355e-05,9.38e-06,0.0,0 STARLINK-5265,1 55317U 23010BA  24091.84420236  .00000938  00000-0  86355-4 0  9993,2 55317  70.0005 349.2242 0002829 270.1926  89.8909 14.98334925 67430,6950.178,96.107,574.009,570.076,0.0
55317.0,STARLINK-5265,PAYLOAD,2024-03-31 23:27:54,14.98338051,0.0002839,70.0004,348.8876,268.5766,91.5067,0.00012654,1.417e-05,0.0,0 STARLINK-5265,1 55317U 23010BA  24091.97771855  .00001417  00000-0  12654-3 0  9996,2 55317  70.0004 348.8876 0002839 268.5766  91.5067 14.98338051 68633,6950.168,96.106,574.006,570.06,0.0
55317.0,STARLINK-5265,PAYLOAD,2024-04-01 10:40:51,14.98331598,0.0002965,69.9999,347.7071,270.3388,89.7431,4.5699e-06,-3.8e-07,0.0,0 STARLINK-5265,1 55317U 23010BA  24092.44504405 -.00000038  00000-0  45699-5 0  9990,2 55317  69.9999 347.7071 0002965 270.3388  89.7431 14.98331598 68700,6950.188,96.107,574.114,569.992,0.0
55317.0,STARLINK-5265,PAYLOAD,2024-04-01 20:17:41,14.98307567,0.0002952,69.9998,346.6976,267.8876,92.1945,0.00027435,3.18e-05,0.0,0 STARLINK-5265,1 55317U 23010BA  24092.84561344  .00003180  00000-0  27435-3 0  9995,2 55317  69.9998 346.6976 0002952 267.8876  92.1945 14.98307567 67582,6950.262,96.108,574.179,570.076,0.0
55317.0,STARLINK-5265,PAYLOAD,2024-04-02 02:42:13,14.98324204,0.0003099,69.9998,346.0263,271.4575,88.6229,-2.2898e-05,-3.66e-06,0.0,0 STARLINK-5265,1 55317U 23010BA  24093.11265068 -.00000366  00000-0 -22898-4 0  9994,2 55317  69.9998 346.0263 0003099 271.4575  88.6229 14.98324204 67622,6950.211,96.107,574.23,569.922,0.0
55317.0,STARLINK-5265,PAYLOAD,2024-04-02 10:42:54,14.98312164,0.0002792,70.0001,345.1839,271.0277,89.0562,-0.00019718,-2.444e-05,0.0,0 STARLINK-5265,1 55317U 23010BA  24093.44646595 -.00002444  00000-0 -19718-3 0  9993,2 55317  70.0001 345.1839 0002792 271.0277  89.0562 14.98312164 67675,6950.248,96.108,574.054,570.173,0.0
55317.0,STARLINK-5265,PAYLOAD,2024-04-02 23:31:59,14.98315507,0.0002888,69.9998,343.8375,270.6272,89.4556,-0.00023065,-2.843e-05,0.0,0 STARLINK-5265,1 55317U 23010BA  24093.98054969 -.00002843  00000-0 -23065-3 0  9993,2 55317  69.9998 343.8375 0002888 270.6272  89.4556 14.98315507 68934,6950.238,96.108,574.11,570.095,0.0
